From 35 observations 2004 Dec. 12-2021 July 8, mean residual 0".16.
</pre>
 <p></p><hr><p>
</p><h2>Saturn LXII (Gunnlod)</h2>
<pre>Epoch 2023 Feb. 25.0 TT = JDT 2460000.5                 Alexanders
M 264.84209              (2000.0)            P               Q
n   0.31326142     Peri.   64.36434     -0.30773582     -0.91690649
a   0.1414476      Node   313.90848     -0.94925340     +0.27763663
e   0.3163696      Incl.  159.34524     -0.06493567     +0.28670609
P   3.15           H   15.57          P/d  1149.20
From 33 observations 2004 Dec. 12-2021 July 9, mean residual 0".21.
</pre>
 <p></p><hr><p>
</p><h2>Saturn LXIII (Thiazzi)</h2>
<pre>Epoch 2023 Feb. 25.0 TT = JDT 2460000.5                 Alexanders
M 159.54390              (2000.0)            P               Q
n   0.25906303     Peri.  354.38829     -0.27831086     +0.88964109
a   0.1605450      Node   100.95175     +0.89495607     +0.10334265
e   0.4368733      Incl.  158.36032     +0.34870717     +0.44481347
P   3.80           H   15.90          P/d  1389.62
From 34 observations 2004 Dec. 12-2021 July 8, mean residual 0".12.
</pre>
 <p></p><hr><p>
</p><h2>Saturn LXIV</h2>
<pre>Epoch 2023 Feb. 25.0 TT = JDT 2460000.5                 Alexanders
M 347.33674              (2000.0)            P               Q
n   0.25566382     Peri.   32.97035     +0.17190347     -0.96951188
a   0.1619649      Node   312.20862     -0.94716187     -0.21139349
e   0.2705091      Incl.  166.36337     -0.27080175     +0.12393345
P   3.86           H   16.15          P/d  1408.10
From 43 observations 2004 Dec. 12-2021 July 8, mean residual 0".16.
</pre>
 <p></p><hr><p>
</p><h2>Saturn LXV (Alvaldi)</h2>
<pre>Epoch 2023 Feb. 25.0 TT = JDT 2460000.5                 Alexanders
M 244.28302              (2000.0)            P               Q
n   0.30392687     Peri.  230.11036     -0.26950972     +0.96274819
a   0.1443292      Node   335.71877     +0.89900421     +0.25969375
e   0.2359285      Incl.  176.94455     +0.34518972     +0.07533313
P   3.24           H   15.63          P/d  1184.50
From 29 observations 2004 Dec. 12-2021 July 8, mean residual 0".11.
</pre>
 <p></p><hr><p>
</p><h2>Saturn LXVI (Geirrod)</h2>
<pre>Epoch 2023 Feb. 25.0 TT = JDT 2460000.5                 Alexanders
M 354.38938              (2000.0)            P               Q
n   0.29271323     Peri.   26.11929     -0.50723825     +0.82832272
a   0.1479922      Node   145.09489     +0.69985361     +0.23483343
e   0.4548426      Incl.  155.43475     +0.50290583     +0.50865973
P   3.37           H   15.89          P/d  1229.87
From 28 observations 2004 Dec. 12-2020 July 24, mean residual 0".14.
</pre>
 <p></p><hr><p>
</p><h2>S/2004 S 7</h2>
<pre>Epoch 2023 Feb. 25.0 TT = JDT 2460000.5                 Alexanders
M 158.47780              (2000.0)            P               Q
n   0.31550144     Peri.  127.76259     -0.36524217     -0.92784253
a   0.1407773      Node    16.82732     -0.91491857     +0.37276057
e   0.6018886      Incl.  164.87383     -0.17182014     -0.01256164
P   3.12           H   15.56          P/d  1141.04
From 33 observations 2004 Dec. 12-2021 July 8, mean residual 0".12.
</pre>
 <p></p><hr><p>
</p><h2>S/2004 S 12</h2>
<pre>Epoch 2023 Feb. 25.0 TT = JDT 2460000.5                 Alexanders
M  34.75217              (2000.0)            P               Q
n   0.34206719     Peri.  112.09848     -0.76311870     -0.63184851
a   0.1333909      Node   330.75247     -0.64625826     +0.74620623
e   0.3760619      Incl.  163.87327     +0.00031737     +0.20962756
P   2.88           H   15.91          P/d  1052.42
From 22 observations 2004 Dec. 12-2021 July 8, mean residual 0".10.
</pre>
 <p></p><hr><p>
</p><h2>S/2004 S 13</h2>
<pre>Epoch 2023 Feb. 25.0 TT = JDT 2460000.5                 Alexanders
M  33.97228              (2000.0)            P               Q
n   0.38130554     Peri.   20.48527     -0.81325772     -0.55171441
a   0.1240752      Node   235.33707     -0.56028936     +0.65658356
e   0.2761860      Incl.  167.00215     -0.15712327     +0.51430461
P   2.58           H   16.25          P/d   944.12
From 22 observations 2004 Dec. 12-2020 July 20, mean residual 0".45.
</pre>
 <p></p><hr><p>
</p><h2>S/2004 S 17</h2>
<pre>Epoch 2023 Feb. 25.0 TT = JDT 2460000.5                 Alexanders
M 289.24369              (2000.0)            P               Q
n   0.34746816     Peri.  192.02545     -0.91011634     -0.39654581
a   0.1320050      Node    36.14517     -0.36127737     +0.90144254
e   0.1460314      Incl.  168.24499     -0.20289630     +0.17364550
P   2.84           H   15.95          P/d  1036.07
From 32 observations 2004 Dec. 13-2021 July 8, mean residual 0".10.
</pre>
 <p></p><hr><p>
</p><h2>S/2004 S 21</h2>
<pre>Epoch 2023 Feb. 25.0 TT = JDT 2460000.5                 Alexanders
M 294.70286              (2000.0)            P               Q
n   0.27526748     Peri.  227.09884     +0.00704054     -0.95897892
a   0.1541808      Node   135.01345     -0.76020366     +0.17897954
e   0.4163459      Incl.  156.36754     -0.64964670     -0.21983122
P   3.58           H   16.21          P/d  1307.82
From 32 observations 2004 Dec. 12-2021 July 8, mean residual 0".16.
</pre>
 <p></p><hr><p>
</p><h2>S/2004 S 24</h2>
<pre>Epoch 2023 Feb. 25.0 TT = JDT 2460000.5                 Alexanders
M 166.39032              (2000.0)            P               Q
n   0.27530725     Peri.   66.38495     +0.69623295     -0.66130299
a   0.1541660      Node   332.23031     +0.20588995     +0.55655675
e   0.0908428      Incl.   36.81192     +0.68765472     +0.50291445
P   3.58           H   15.98          P/d  1307.63
From 23 observations 2004 Dec. 12-2020 July 24, mean residual 0".16.
</pre>
 <p></p><hr><p>
</p><h2>S/2004 S 28</h2>
<pre>Epoch 2023 Feb. 25.0 TT = JDT 2460000.5                 Alexanders
M  54.43592              (2000.0)            P               Q
n   0.30242486     Peri.  237.82928     +0.16820980     -0.98377681
a   0.1448067      Node   157.26398     -0.84135948     -0.11032066
e   0.1348865      Incl.  170.71480     -0.51363381     -0.14146569
P   3.26           H   15.77          P/d  1190.38
From 37 observations 2004 Dec. 12-2021 July 8, mean residual 0".14.
</pre>
 <p></p><hr><p>
</p><h2>S/2004 S 31</h2>
<pre>Epoch 2023 Feb. 25.0 TT = JDT 2460000.5                 Alexanders
M 183.01371              (2000.0)            P               Q
n   0.41236143     Peri.  256.06955     +0.54640661     +0.47942414
a   0.1177647      Node    70.50166     -0.13056610     +0.85868767
e   0.2515125      Incl.   46.76118     -0.82728006     +0.18112974
P   2.39           H   15.63          P/d   873.02
From 33 observations 2004 Dec. 12-2021 July 9, mean residual 0".19.
</pre>
 <p></p><hr><p>
</p><h2>S/2004 S 36</h2>
<pre>Epoch 2023 Sept. 13.0 TT = JDT 2460200.5                Alexanders
M 301.87188              (2000.0)            P               Q
n   0.26820507     Peri.  241.78849     +0.92293591     +0.12164605
a   0.1568757      Node   250.78573     +0.29976320     -0.82235564
e   0.5992013      Incl.  157.24611     -0.24151880     -0.55581781
P   3.67           H   16.19          P/d  1342.26
From 18 observations 2004 Dec. 13-2020 June 29, mean residual 0".32.
</pre>
 <p></p><hr><p>
</p><h2>S/2004 S 37</h2>
<pre>Epoch 2023 Feb. 25.0 TT = JDT 2460000.5                 Alexanders
M 250.20020              (2000.0)            P               Q
n   0.47929063     Peri.  112.00375     +0.52860853     +0.84728052
a   0.1065290      Node   169.61425     +0.63330599     -0.43431325
e   0.5371091      Incl.  163.28360     +0.56524025     -0.30575764
P   2.06           H   15.92          P/d   751.11
From 24 observations 2004 Dec. 12-2021 July 9, mean residual 0".15.
</pre>
 <p></p><hr><p>
</p><h2>S/2004 S 39</h2>
<pre>Epoch 2023 Feb. 25.0 TT = JDT 2460000.5                 Alexanders
M 188.09134              (2000.0)            P               Q
n   0.27233994     Peri.  270.28161     +0.36134636     -0.92857725
a   0.1552838      Node   202.06016     -0.74039645     -0.34095288
e   0.0811870      Incl.  166.96758     -0.56678206     -0.14661315
P   3.62           H   16.14          P/d  1321.88
From 26 observations 2004 Dec. 12-2021 July 9, mean residual 0".69.
</pre>
 <p></p><hr><p>
</p><h2>S/2004 S 40</h2>
<pre>Epoch 2023 Feb. 25.0 TT = JDT 2460000.5                 Alexanders
M 296.61781              (2000.0)            P               Q
n   0.47002167     Peri.  161.23114     -0.27951078     -0.94908713
a   0.1079249      Node    55.24855     -0.90199647     +0.31141769
e   0.3172992      Incl.  169.81523     -0.32905332     -0.04746213
P   2.10           H   16.28          P/d   765.92
From 24 observations 2004 Dec. 12-2021 July 9, mean residual 0".13.
</pre>
 <p></p><hr><p>
</p><h2>S/2004 S 41</h2>
<pre>Epoch 2023 Feb. 25.0 TT = JDT 2460000.5                 Alexanders
M  81.87562              (2000.0)            P               Q
n   0.40189348     Peri.  247.81978     -0.98234226     +0.01918844
a   0.1198008      Node    67.13113     +0.07862081     +0.94497300
e   0.2947523      Incl.  168.34708     -0.16977175     +0.32658510
P   2.45           H   16.31          P/d   895.76
From 25 observations 2004 Dec. 12-2021 July 8, mean residual 0".24.
</pre>
 <p></p><hr><p>
</p><h2>S/2004 S 42</h2>
<pre>Epoch 2023 Feb. 25.0 TT = JDT 2460000.5                 Alexanders
M   4.33780              (2000.0)            P               Q
n   0.39534015     Peri.  137.79629     -0.38049750     -0.91852251
a   0.1211211      Node    25.98716     -0.90041593     +0.39445177
e   0.1574247      Incl.  165.80957     -0.21088578     -0.02691091
P   2.49           H   16.11          P/d   910.61
From 27 observations 2004 Dec. 12-2021 July 8, mean residual 0".16.
</pre>
 <p></p><hr><p>
</p><h2>S/2004 S 43</h2>
<pre>Epoch 2023 Feb. 25.0 TT = JDT 2460000.5                 Alexanders
M 222.70879              (2000.0)            P               Q
n   0.37056878     Peri.  284.01375     +0.55746179     -0.82361926
